#aV2015  1  1  0  0  0.00000000     288 DD+AD WGS84 FIT  NGA
## 1825 345600.00000000   300.00000000 57023 0.0000000000000
+   32     1  2  3  4  5  6  7  8  9 10 11 12 13 14 15 16 17
+         18 19 20 21 22 23 24 25 26 27 28 29 30 31 32  0  0
+          0  0  0  0  0  0  0  0  0  0  0  0  0  0  0  0  0
+          0  0  0  0  0  0  0  0  0  0  0  0  0  0  0  0  0
+          0  0  0  0  0  0  0  0  0  0  0  0  0  0  0  0  0
++         2  2  2  2  2  2  2  2  2  2  2  2  2  2  2  2  2
++         2  2  2  2  2  2  2  2  2  2  2  2  2  2  2  0  0
++         0  0  0  0  0  0  0  0  0  0  0  0  0  0  0  0  0
++         0  0  0  0  0  0  0  0  0  0  0  0  0  0  0  0  0
++         0  0  0  0  0  0  0  0  0  0  0  0  0  0  0  0  0
%c cc cc ccc ccc cccc cccc cccc cccc ccccc ccccc ccccc ccccc
%c cc cc ccc ccc cccc cccc cccc cccc ccccc ccccc ccccc ccccc
%f  0.0000000  0.000000000  0.00000000000  0.000000000000000
%f  0.0000000  0.000000000  0.00000000000  0.000000000000000
%i    0    0    0    0      0      0      0      0         0
%i    0    0    0    0      0      0      0      0         0
/*      NGA, ST. LOUIS,MO.                                  
/*   EPHEMERIS COMPUTED FROM  1 DAYS OF DATA                
/*   EPOCHA SMOOTHER                                       
/* CCCCCCCCCCCCCCCCCCCCCCCCCCCCCCCCCCCCCCCCCCCCCCCCCCCCCCCCC
*  2015  1  1 14 15  0.00000000
P  1  14093.836735  13268.798082 -18309.643085    -10.604366                    
V  1 -23118.479361    618.536612 -17233.937529      0.003502                    
P  2  11122.234136 -14303.126568  19597.140631    539.292381                    
V  2  24398.210221   1637.434344 -13347.893110      0.022328                    
P  3  13054.978653  23091.329274    718.931204    118.557930                    
V  3  -2134.940180   2188.253402 -31726.641688      0.269506                    
P  4   2747.253254  15784.330870 -21518.033031     -5.033411                    
V  4 -26653.109762   -172.335062  -3318.065676     -0.005220                    
P  5   1520.471714 -21097.962904  15900.906379   -298.602069                    
V  5  11841.708330  16775.778531  21229.816454      0.049477                    
P  6  23420.762497  -6739.081228  10527.360577     40.288986                    
V  6  13321.587480   2813.603666 -27820.590240      0.092867                    
P  7  23953.043750   7589.369909   9242.590471    427.610128                    
V  7 -11562.338822   1334.255833  28831.436796      0.034557                    
P  8  -4599.474145  13918.250740  22297.029972     16.948292                    
V  8 -27386.272660  -4770.763200  -3308.231280      0.001726                    
P  9  14195.836355   5910.577420  21651.519683    -42.761431                    
V  9 -14139.936756  23600.169096   2817.755180     -0.104279                    
P 10  14894.936975  -4748.886614  21122.394869   -156.878834                    
V 10  12772.737355  24639.073972  -2985.586301     -0.016573                    
P 11   7444.782163  15327.471174 -20908.924436   -547.763631                    
V 11 -24396.449576   8064.210839  -2692.402909     -0.026965                    
P 12 -10271.728211 -24531.600851  -2203.558133    258.024260                    
V 12   2723.210084   1656.464907 -32059.469152      0.029166                    
P 13  13913.114442 -22407.756745  -4126.048859    -74.806870                    
V 13   4751.933497  -2645.924599  31395.640352     -0.034156                    
P 14 -19664.477206  11565.630361 -13250.270147    100.903146                    
V 14   8339.845119 -15257.853039 -25397.818579     -0.035444                    
P 15  -1769.553701 -21050.086941 -15984.882146   -223.769712                    
V 15  12184.795635 -16516.102427  20816.733267     -0.022384                    
P 16  -2366.063443  20555.842994  16377.057529   -168.531376                    
V 16 -10180.825286 -18420.462808  21929.575350      0.030739                    
P 17  19184.592247 -10239.963373 -14810.783579   -147.443689                    
V 17  -9179.061301  17183.617145 -23548.020524     -0.023217                    
P 18 -18939.705284 -10252.847783 -15271.155263    369.217153                    
V 18  -7566.203236 -18936.052188  21129.491235      0.026716                    
P 19  -5202.751318  22198.061782 -13404.149581   -494.875750                    
V 19 -12022.469776  12101.657728  25469.933660     -0.015734                    
P 20  17828.680623  18456.626260   6932.261258    273.838976                    
V 20   1760.997643   9590.558617 -29197.029140      0.042268                    
P 21 -26189.427044  -3882.601778   4680.604520   -403.605003                    
V 21   5131.802754  -3100.494858  30137.289302     -0.023020                    
P 22 -15903.015352   3745.171281 -20745.855411    302.838375                    
V 22 -12607.185151 -23850.524395   5133.861376      0.039646                    
P 23   7145.510130  15766.004838  20160.645687    -78.622723                    
V 23 -14638.483591  20882.896773 -11637.148766     -0.026837                    
P 24 -10821.003473 -14144.188859 -19766.691540    -41.029585                    
V 24  25047.287225   -802.832131 -13020.462920     -0.006166                    
P 25 -17131.411679 -17890.520892   9713.581138      5.948896                    
V 25  -4166.179565 -11818.242600 -28735.825872     -0.022981                    
P 26  11081.369337 -22970.576924  -7535.717010   -177.361456                    
V 26   7203.689127  -5498.307114  30275.022677     -0.132798                    
P 27 -11969.896496  23474.085849  -2968.810150     41.238480                    
V 27  -4267.385589   1799.505001  31630.288206      0.027002                    
P 28  16034.797035   2781.119474 -20393.792775    409.401396                    
V 28  10584.067923  25100.935623  11297.248616      0.025984                    
P 29 -11814.636263  -9241.547738  21948.844014    583.217238                    
V 29  15855.626413 -22789.375962  -1025.094583      0.023548                    
P 30  26476.283235   1367.067070  -1987.963939    -86.168141                    
V 30   2209.271190   3124.296605  31516.253994     -0.005086                    
P 31 -22187.506823   7467.077602  13007.353399    326.324897                    
V 31 -15997.280356  -2561.282478 -25788.336375     -0.007568                    
P 32   2872.994629  24697.558829 -10071.684615   -257.471164                    
V 32  -7319.442146 -10592.411462 -27517.174944      0.086460                    
EOF
